GSAT0101 (PRN E11)      
1 37846U 11060A   24003.13314387 -.00000070  00000+0  00000+0 0  9991
2 37846  57.1221   6.0259 0002966 326.7040  33.3007  1.70476015 75846
GSAT0102 (PRN E12)      
1 37847U 11060B   24004.22688346 -.00000066  00000+0  00000+0 0  9997
2 37847  57.1230   5.9963 0004803 312.6409  44.6302  1.70475412 75867
GSAT0103 (PRN E19)      
1 38857U 12055A   24004.34542819  .00000027  00000+0  00000+0 0  9997
2 38857  55.3358 126.1383 0003261 246.5071 113.4338  1.70473558 69753
GSAT0104 (PRN E20)      
1 38858U 12055B   24003.14155352  .00000026  00000+0  00000+0 0  9996
2 38858  55.3354 126.1729 0001434 194.8573 165.1134  1.70473766 69845
GSAT0201 (PRN E18)      
1 40128U 14050A   24004.15561891 -.00000090  00000+0  00000+0 0  9999
2 40128  49.8218 309.6908 1605686 144.9465 226.7873  1.85519617 61712
GSAT0202 (PRN E14)      
1 40129U 14050B   24003.33657244 -.00000091  00000+0  00000+0 0  9998
2 40129  49.8408 308.7976 1603946 145.7224 225.7832  1.85520317 63869
GSAT0203 (PRN E26)      
1 40544U 15017A   24003.49893752 -.00000069  00000+0  00000+0 0  9991
2 40544  56.9174   5.9724 0005531 268.5659  91.3945  1.70476121 53933
GSAT0204 (PRN E22)      
1 40545U 15017B   24003.16632323 -.00000070  00000+0  00000+0 0  9993
2 40545  56.9237   5.9962 0005131 258.6556 101.3101  1.70475765 16972
GSAT0205 (PRN E24)      
1 40889U 15045A   24003.52150134  .00000036  00000+0  00000+0 0  9991
2 40889  55.2976 246.3496 0005894  27.4759 332.6371  1.70473278 51740
GSAT0206 (PRN E30)      
1 40890U 15045B   24004.32877861  .00000041  00000+0  00000+0 0  9991
2 40890  55.2964 246.3226 0004582  35.9454 324.1677  1.70473060 51787
GSAT0209 (PRN E09)      
1 41174U 15079A   24004.49918453  .00000027  00000+0  00000+0 0  9999
2 41174  55.3538 125.8420 0004162 293.5430  66.3884  1.70474372 49529
GSAT0208 (PRN E08)      
1 41175U 15079B   24003.54569874  .00000026  00000+0  00000+0 0  9993
2 41175  55.3513 125.8662 0001538 311.1290  48.8333  1.70474594 49920
GSAT0211 (PRN E02)      
1 41549U 16030A   24004.25446002  .00000041  00000+0  00000+0 0  9999
2 41549  55.4435 246.3182 0004172   1.5735 358.5101  1.70473250 47410
GSAT0210 (PRN E01)      
1 41550U 16030B   24003.95919323  .00000039  00000+0  00000+0 0  9995
2 41550  55.4431 246.3274 0002313 338.9487  21.1238  1.70473587 47402
GSAT0207 (PRN E07)      
1 41859U 16069A   23365.68686548  .00000017  00000+0  00000+0 0  9995
2 41859  55.0159 125.9895 0002404 287.3229  72.6175  1.70474758 44083
GSAT0212 (PRN E03)      
1 41860U 16069B   24004.06086554  .00000026  00000+0  00000+0 0  9991
2 41860  55.0147 125.8927 0001146 348.8293  11.1435  1.70474920 44395
GSAT0213 (PRN E04)      
1 41861U 16069C   24003.84132643  .00000026  00000+0  00000+0 0  9998
2 41861  55.0164 125.9050 0003012 256.0095 103.9325  1.70473482 44252
GSAT0214 (PRN E05)      
1 41862U 16069D   24004.57468981  .00000027  00000+0  00000+0 0  9998
2 41862  55.0158 125.8786 0002091 251.6722 108.2800  1.70475066 44396
GSAT0215 (PRN E21)      
1 43055U 17079A   24003.89074052  .00000039  00000+0  00000+0 0  9995
2 43055  55.4205 246.1524 0001663 346.4938  13.5837  1.70473966 37726
GSAT0216 (PRN E25)      
1 43056U 17079B   24002.42280291  .00000031  00000+0  00000+0 0  9990
2 43056  55.4217 246.1928 0003100 314.0008  46.0566  1.70474189 37712
GSAT0217 (PRN E27)      
1 43057U 17079C   24003.22983243  .00000035  00000+0  00000+0 0  9991
2 43057  55.4198 246.1694 0002988 354.6865   5.3923  1.70474058 37715
GSAT0218 (PRN E31)      
1 43058U 17079D   24004.03638821  .00000040  00000+0  00000+0 0  9997
2 43058  55.4186 246.1447 0003665 301.3659  58.6804  1.70474145 37752
GSAT0221 (PRN E15)      
1 43564U 18060A   23364.24325772 -.00000084  00000+0  00000+0 0  9998
2 43564  57.2972   6.0459 0005949 279.9546  79.9996  1.70475958 33820
GSAT0222 (PRN E33)      
1 43565U 18060B   24003.56761566 -.00000068  00000+0  00000+0 0  9992
2 43565  57.3015   5.9308 0005066 259.2872 100.6796  1.70475660 33947
GSAT0219 (PRN E36)      
1 43566U 18060C   24003.78977219 -.00000067  00000+0  00000+0 0  9990
2 43566  57.3005   5.9267 0005187 288.5437  71.4241  1.70475875 33923
GSAT0220 (PRN E13)      
1 43567U 18060D   24002.83709851 -.00000071  00000+0  00000+0 0  9996
2 43567  57.3002   5.9530 0005416 284.3630  75.5997  1.70475965 33897
GSAT0223 (PRN E34)      
1 49809U 21116A   24003.35484674 -.00000069  00000+0  00000+0 0  9995
2 49809  57.2912   5.8343 0003395 246.5882 161.4798  1.70476104 12915
GSAT0224 (PRN E10)      
1 49810U 21116B   24003.10470427 -.00000070  00000+0  00000+0 0  9993
2 49810  57.2921   5.8393 0002779 252.9918 114.0504  1.70476142 12931
